{
  "links" : {
    "next" : "https://api.nasa.gov/neo/rest/v1/feed?start_date=2003-02-16&end_date=2003-02-16&detailed=true&api_key=t0TVs3DtDT2H8Oy2Zy8m2eVrNsAVKAexjcZXUckd",
    "prev" : "https://api.nasa.gov/neo/rest/v1/feed?start_date=2003-02-14&end_date=2003-02-14&detailed=true&api_key=t0TVs3DtDT2H8Oy2Zy8m2eVrNsAVKAexjcZXUckd",
    "self" : "https://api.nasa.gov/neo/rest/v1/feed?start_date=2003-02-15&end_date=2003-02-15&detailed=true&api_key=t0TVs3DtDT2H8Oy2Zy8m2eVrNsAVKAexjcZXUckd"
  },
  "element_count" : 3,
  "near_earth_objects" : {
    "2003-02-15" : [ {
      "links" : {
        "self" : "https://api.nasa.gov/neo/rest/v1/neo/3558379?api_key=t0TVs3DtDT2H8Oy2Zy8m2eVrNsAVKAexjcZXUckd"
      },
      "neo_reference_id" : "3558379",
      "name" : "(2011 EY11)",
      "nasa_jpl_url" : "http://ssd.jpl.nasa.gov/sbdb.cgi?sstr=3558379",
      "absolute_magnitude_h" : 28.5,
      "estimated_diameter" : {
        "kilometers" : {
          "estimated_diameter_min" : 0.0053034072,
          "estimated_diameter_max" : 0.0118587791
        },
        "meters" : {
          "estimated_diameter_min" : 5.3034072332,
          "estimated_diameter_max" : 11.8587790858
        },
        "miles" : {
          "estimated_diameter_min" : 0.0032953835,
          "estimated_diameter_max" : 0.0073687014
        },
        "feet" : {
          "estimated_diameter_min" : 17.3996305869,
          "estimated_diameter_max" : 38.9067567758
        }
      },
      "is_potentially_hazardous_asteroid" : false,
      "close_approach_data" : [ {
        "close_approach_date" : "2003-02-15",
        "epoch_date_close_approach" : 1045296000000,
        "relative_velocity" : {
          "kilometers_per_second" : "21.1171509193",
          "kilometers_per_hour" : "76021.7433096272",
          "miles_per_hour" : "47236.9548914737"
        },
        "miss_distance" : {
          "astronomical" : "0.3451363188",
          "lunar" : "134.258026123",
          "kilometers" : "51631660",
          "miles" : "32082424"
        },
        "orbiting_body" : "Earth"
      } ],
      "orbital_data" : {
        "orbit_id" : "9",
        "orbit_determination_date" : "2017-04-06 08:54:16",
        "orbit_uncertainty" : "6",
        "minimum_orbit_intersection" : ".00167536",
        "jupiter_tisserand_invariant" : "4.833",
        "epoch_osculation" : "2458000.5",
        "eccentricity" : ".3730556045243078",
        "semi_major_axis" : "1.330582800009823",
        "inclination" : "10.42288418267482",
        "ascending_node_longitude" : "345.8325051146372",
        "orbital_period" : "560.6105735399751",
        "perihelion_distance" : ".8342014291825121",
        "perihelion_argument" : "245.8997640625469",
        "aphelion_distance" : "1.826964170837133",
        "perihelion_time" : "2457918.726856126021",
        "mean_anomaly" : "52.51119615661933",
        "mean_motion" : ".6421569927352248",
        "equinox" : "J2000"
      }
    }, {
      "links" : {
        "self" : "https://api.nasa.gov/neo/rest/v1/neo/3638286?api_key=t0TVs3DtDT2H8Oy2Zy8m2eVrNsAVKAexjcZXUckd"
      },
      "neo_reference_id" : "3638286",
      "name" : "(2013 JK14)",
      "nasa_jpl_url" : "http://ssd.jpl.nasa.gov/sbdb.cgi?sstr=3638286",
      "absolute_magnitude_h" : 24.9,
      "estimated_diameter" : {
        "kilometers" : {
          "estimated_diameter_min" : 0.0278326768,
          "estimated_diameter_max" : 0.0622357573
        },
        "meters" : {
          "estimated_diameter_min" : 27.8326768072,
          "estimated_diameter_max" : 62.2357573367
        },
        "miles" : {
          "estimated_diameter_min" : 0.0172944182,
          "estimated_diameter_max" : 0.0386714948
        },
        "feet" : {
          "estimated_diameter_min" : 91.3145593761,
          "estimated_diameter_max" : 204.1855621004
        }
      },
      "is_potentially_hazardous_asteroid" : false,
      "close_approach_data" : [ {
        "close_approach_date" : "2003-02-15",
        "epoch_date_close_approach" : 1045296000000,
        "relative_velocity" : {
          "kilometers_per_second" : "24.996366092",
          "kilometers_per_hour" : "89986.9179311035",
          "miles_per_hour" : "55914.3713111349"
        },
        "miss_distance" : {
          "astronomical" : "0.3610557082",
          "lunar" : "140.450668335",
          "kilometers" : "54013164",
          "miles" : "33562224"
        },
        "orbiting_body" : "Earth"
      } ],
      "orbital_data" : {
        "orbit_id" : "7",
        "orbit_determination_date" : "2017-04-06 08:45:55",
        "orbit_uncertainty" : "7",
        "minimum_orbit_intersection" : ".00757691",
        "jupiter_tisserand_invariant" : "6.388",
        "epoch_osculation" : "2458000.5",
        "eccentricity" : ".4643832578435985",
        "semi_major_axis" : ".9217344007415763",
        "inclination" : "4.873367484614554",
        "ascending_node_longitude" : "55.74071437400801",
        "orbital_period" : "323.226620523982",
        "perihelion_distance" : ".4936963768586862",
        "perihelion_argument" : "313.0164204914738",
        "aphelion_distance" : "1.349772424624466",
        "perihelion_time" : "2458122.836811967918",
        "mean_anomaly" : "223.7449717567965",
        "mean_motion" : "1.11376964996387",
        "equinox" : "J2000"
      }
    }, {
      "links" : {
        "self" : "https://api.nasa.gov/neo/rest/v1/neo/3743123?api_key=t0TVs3DtDT2H8Oy2Zy8m2eVrNsAVKAexjcZXUckd"
      },
      "neo_reference_id" : "3743123",
      "name" : "(2016 CA138)",
      "nasa_jpl_url" : "http://ssd.jpl.nasa.gov/sbdb.cgi?sstr=3743123",
      "absolute_magnitude_h" : 23.4,
      "estimated_diameter" : {
        "kilometers" : {
          "estimated_diameter_min" : 0.0555334912,
          "estimated_diameter_max" : 0.1241766613
        },
        "meters" : {
          "estimated_diameter_min" : 55.5334911581,
          "estimated_diameter_max" : 124.1766612574
        },
        "miles" : {
          "estimated_diameter_min" : 0.0345069009,
          "estimated_diameter_max" : 0.0771597762
        },
        "feet" : {
          "estimated_diameter_min" : 182.1964991311,
          "estimated_diameter_max" : 407.4037573197
        }
      },
      "is_potentially_hazardous_asteroid" : false,
      "close_approach_data" : [ {
        "close_approach_date" : "2003-02-15",
        "epoch_date_close_approach" : 1045296000000,
        "relative_velocity" : {
          "kilometers_per_second" : "18.4350042078",
          "kilometers_per_hour" : "66366.0151481984",
          "miles_per_hour" : "41237.2609125014"
        },
        "miss_distance" : {
          "astronomical" : "0.3724974219",
          "lunar" : "144.9014892578",
          "kilometers" : "55724820",
          "miles" : "34625796"
        },
        "orbiting_body" : "Earth"
      } ],
      "orbital_data" : {
        "orbit_id" : "15",
        "orbit_determination_date" : "2017-09-03 06:18:06",
        "orbit_uncertainty" : "0",
        "minimum_orbit_intersection" : ".051852",
        "jupiter_tisserand_invariant" : "5.976",
        "epoch_osculation" : "2458000.5",
        "eccentricity" : ".04785421434227258",
        "semi_major_axis" : "1.000635310238575",
        "inclination" : "27.72270532641191",
        "ascending_node_longitude" : "328.9859009608685",
        "orbital_period" : "365.6050307755489",
        "perihelion_distance" : ".9527506936239722",
        "perihelion_argument" : "327.9732393908697",
        "aphelion_distance" : "1.048519926853179",
        "perihelion_time" : "2457947.679860924133",
        "mean_anomaly" : "52.0103621850488",
        "mean_motion" : ".9846691639782443",
        "equinox" : "J2000"
      }
    } ]
  }
}